[{"OBJECT_NAME":"GSAT0101 (PRN E11)","OBJECT_ID":"2011-060A","EPOCH":"2022-08-17T20:14:16.343808","MEAN_MOTION":1.70475088,"ECCENTRICITY":0.0002621,"INCLINATION":57.0198,"RA_OF_ASC_NODE":19.6692,"ARG_OF_PERICENTER":67.7753,"MEAN_ANOMALY":292.2538,"EPHEMERIS_TYPE":0,"CLASSIFICATION_TYPE":"U","NORAD_CAT_ID":37846,"ELEMENT_SET_NO":999,"REV_AT_EPOCH":6739,"BSTAR":0,"MEAN_MOTION_DOT":-9.2e-7,"MEAN_MOTION_DDOT":0},{"OBJECT_NAME":"GSAT0102 (PRN E12)","OBJECT_ID":"2011-060B","EPOCH":"2022-08-15T10:15:27.111168","MEAN_MOTION":1.70475349,"ECCENTRICITY":0.0001682,"INCLINATION":57.0194,"RA_OF_ASC_NODE":19.7343,"ARG_OF_PERICENTER":15.0567,"MEAN_ANOMALY":349.0531,"EPHEMERIS_TYPE":0,"CLASSIFICATION_TYPE":"U","NORAD_CAT_ID":37847,"ELEMENT_SET_NO":999,"REV_AT_EPOCH":6723,"BSTAR":0,"MEAN_MOTION_DOT":-9.3e-7,"MEAN_MOTION_DDOT":0},{"OBJECT_NAME":"GSAT0103 (PRN E19)","OBJECT_ID":"2012-055A","EPOCH":"2022-08-18T11:15:42.610752","MEAN_MOTION":1.70473794,"ECCENTRICITY":0.0003336,"INCLINATION":55.153,"RA_OF_ASC_NODE":139.9943,"ARG_OF_PERICENTER":269.1489,"MEAN_ANOMALY":90.84,"EPHEMERIS_TYPE":0,"CLASSIFICATION_TYPE":"U","NORAD_CAT_ID":38857,"ELEMENT_SET_NO":999,"REV_AT_EPOCH":6116,"BSTAR":0,"MEAN_MOTION_DOT":-2.8e-7,"MEAN_MOTION_DDOT":0},{"OBJECT_NAME":"GSAT0104 (PRN E20)","OBJECT_ID":"2012-055B","EPOCH":"2022-08-19T00:37:12.735840","MEAN_MOTION":1.70474114,"ECCENTRICITY":9.07e-5,"INCLINATION":55.1534,"RA_OF_ASC_NODE":139.9806,"ARG_OF_PERICENTER":267.598,"MEAN_ANOMALY":92.4178,"EPHEMERIS_TYPE":0,"CLASSIFICATION_TYPE":"U","NORAD_CAT_ID":38858,"ELEMENT_SET_NO":999,"REV_AT_EPOCH":6117,"BSTAR":0,"MEAN_MOTION_DOT":-3.0e-7,"MEAN_MOTION_DDOT":0},{"OBJECT_NAME":"GSAT0201 (PRN E18)","OBJECT_ID":"2014-050A","EPOCH":"2022-08-18T04:39:46.732896","MEAN_MOTION":1.855191,"ECCENTRICITY":0.1623503,"INCLINATION":50.2415,"RA_OF_ASC_NODE":329.8234,"ARG_OF_PERICENTER":126.2997,"MEAN_ANOMALY":249.8209,"EPHEMERIS_TYPE":0,"CLASSIFICATION_TYPE":"U","NORAD_CAT_ID":40128,"ELEMENT_SET_NO":999,"REV_AT_EPOCH":5236,"BSTAR":0,"MEAN_MOTION_DOT":-1.26e-6,"MEAN_MOTION_DDOT":0},{"OBJECT_NAME":"GSAT0202 (PRN E14)","OBJECT_ID":"2014-050B","EPOCH":"2022-08-19T12:47:37.387968","MEAN_MOTION":1.85519717,"ECCENTRICITY":0.1620471,"INCLINATION":50.2645,"RA_OF_ASC_NODE":328.8324,"ARG_OF_PERICENTER":127.1609,"MEAN_ANOMALY":248.7762,"EPHEMERIS_TYPE":0,"CLASSIFICATION_TYPE":"U","NORAD_CAT_ID":40129,"ELEMENT_SET_NO":999,"REV_AT_EPOCH":5455,"BSTAR":0,"MEAN_MOTION_DOT":-1.23e-6,"MEAN_MOTION_DDOT":0},{"OBJECT_NAME":"GSAT0203 (PRN E26)","OBJECT_ID":"2015-017A","EPOCH":"2022-08-18T05:02:36.286944","MEAN_MOTION":1.70475772,"ECCENTRICITY":0.0002015,"INCLINATION":56.8151,"RA_OF_ASC_NODE":19.684,"ARG_OF_PERICENTER":208.5575,"MEAN_ANOMALY":151.4335,"EPHEMERIS_TYPE":0,"CLASSIFICATION_TYPE":"U","NORAD_CAT_ID":40544,"ELEMENT_SET_NO":999,"REV_AT_EPOCH":4535,"BSTAR":0,"MEAN_MOTION_DOT":-9.2e-7,"MEAN_MOTION_DDOT":0},{"OBJECT_NAME":"GSAT0204 (PRN E22)","OBJECT_ID":"2015-017B","EPOCH":"2022-08-17T21:01:59.541312","MEAN_MOTION":1.70475738,"ECCENTRICITY":0.0002754,"INCLINATION":56.8204,"RA_OF_ASC_NODE":19.7058,"ARG_OF_PERICENTER":189.7325,"MEAN_ANOMALY":170.2637,"EPHEMERIS_TYPE":0,"CLASSIFICATION_TYPE":"U","NORAD_CAT_ID":40545,"ELEMENT_SET_NO":999,"REV_AT_EPOCH":839,"BSTAR":0,"MEAN_MOTION_DOT":-9.2e-7,"MEAN_MOTION_DDOT":0},{"OBJECT_NAME":"GSAT0205 (PRN E24)","OBJECT_ID":"2015-045A","EPOCH":"2022-08-19T09:40:51.874752","MEAN_MOTION":1.70473648,"ECCENTRICITY":0.0003451,"INCLINATION":55.5843,"RA_OF_ASC_NODE":260.2236,"ARG_OF_PERICENTER":347.5276,"MEAN_ANOMALY":12.5206,"EPHEMERIS_TYPE":0,"CLASSIFICATION_TYPE":"U","NORAD_CAT_ID":40889,"ELEMENT_SET_NO":999,"REV_AT_EPOCH":4318,"BSTAR":0,"MEAN_MOTION_DOT":3.6e-7,"MEAN_MOTION_DDOT":0},{"OBJECT_NAME":"GSAT0206 (PRN E30)","OBJECT_ID":"2015-045B","EPOCH":"2022-08-18T10:49:24.008448","MEAN_MOTION":1.70473618,"ECCENTRICITY":0.0002649,"INCLINATION":55.5837,"RA_OF_ASC_NODE":260.2459,"ARG_OF_PERICENTER":315.4949,"MEAN_ANOMALY":44.538,"EPHEMERIS_TYPE":0,"CLASSIFICATION_TYPE":"U","NORAD_CAT_ID":40890,"ELEMENT_SET_NO":999,"REV_AT_EPOCH":4319,"BSTAR":0,"MEAN_MOTION_DOT":3.0e-7,"MEAN_MOTION_DDOT":0},{"OBJECT_NAME":"GSAT0209 (PRN E09)","OBJECT_ID":"2015-079A","EPOCH":"2022-08-18T00:55:32.663136","MEAN_MOTION":1.70474004,"ECCENTRICITY":0.0003844,"INCLINATION":55.1695,"RA_OF_ASC_NODE":139.7103,"ARG_OF_PERICENTER":319.8878,"MEAN_ANOMALY":40.1122,"EPHEMERIS_TYPE":0,"CLASSIFICATION_TYPE":"U","NORAD_CAT_ID":41174,"ELEMENT_SET_NO":999,"REV_AT_EPOCH":4150,"BSTAR":0,"MEAN_MOTION_DOT":-2.6e-7,"MEAN_MOTION_DDOT":0},{"OBJECT_NAME":"GSAT0208 (PRN E08)","OBJECT_ID":"2015-079B","EPOCH":"2022-08-17T02:02:13.601760","MEAN_MOTION":1.70473953,"ECCENTRICITY":0.0003146,"INCLINATION":55.1676,"RA_OF_ASC_NODE":139.735,"ARG_OF_PERICENTER":320.8757,"MEAN_ANOMALY":39.1308,"EPHEMERIS_TYPE":0,"CLASSIFICATION_TYPE":"U","NORAD_CAT_ID":41175,"ELEMENT_SET_NO":999,"REV_AT_EPOCH":4132,"BSTAR":0,"MEAN_MOTION_DOT":-2.1e-7,"MEAN_MOTION_DDOT":0},{"OBJECT_NAME":"GSAT0211 (PRN E02)","OBJECT_ID":"2016-030A","EPOCH":"2022-08-17T18:58:29.269920","MEAN_MOTION":1.70475145,"ECCENTRICITY":0.0004736,"INCLINATION":55.7326,"RA_OF_ASC_NODE":260.2038,"ARG_OF_PERICENTER":298.8427,"MEAN_ANOMALY":61.163,"EPHEMERIS_TYPE":0,"CLASSIFICATION_TYPE":"U","NORAD_CAT_ID":41549,"ELEMENT_SET_NO":999,"REV_AT_EPOCH":3881,"BSTAR":0,"MEAN_MOTION_DOT":2.6e-7,"MEAN_MOTION_DDOT":0},{"OBJECT_NAME":"GSAT0210 (PRN E01)","OBJECT_ID":"2016-030B","EPOCH":"2022-08-18T01:59:51.924768","MEAN_MOTION":1.70474604,"ECCENTRICITY":0.000447,"INCLINATION":55.7299,"RA_OF_ASC_NODE":260.1971,"ARG_OF_PERICENTER":273.3223,"MEAN_ANOMALY":86.6802,"EPHEMERIS_TYPE":0,"CLASSIFICATION_TYPE":"U","NORAD_CAT_ID":41550,"ELEMENT_SET_NO":999,"REV_AT_EPOCH":3881,"BSTAR":0,"MEAN_MOTION_DOT":2.8e-7,"MEAN_MOTION_DDOT":0},{"OBJECT_NAME":"GSAT0207 (PRN E07)","OBJECT_ID":"2016-069A","EPOCH":"2022-08-18T22:02:51.472320","MEAN_MOTION":1.70472783,"ECCENTRICITY":0.0003782,"INCLINATION":54.8304,"RA_OF_ASC_NODE":139.8518,"ARG_OF_PERICENTER":304.2569,"MEAN_ANOMALY":55.7337,"EPHEMERIS_TYPE":0,"CLASSIFICATION_TYPE":"U","NORAD_CAT_ID":41859,"ELEMENT_SET_NO":999,"REV_AT_EPOCH":3556,"BSTAR":0,"MEAN_MOTION_DOT":-3.0e-7,"MEAN_MOTION_DDOT":0},{"OBJECT_NAME":"GSAT0212 (PRN E03)","OBJECT_ID":"2016-069B","EPOCH":"2022-08-18T18:31:46.784928","MEAN_MOTION":1.70472658,"ECCENTRICITY":0.0002771,"INCLINATION":54.8277,"RA_OF_ASC_NODE":139.8533,"ARG_OF_PERICENTER":338.9762,"MEAN_ANOMALY":21.0391,"EPHEMERIS_TYPE":0,"CLASSIFICATION_TYPE":"U","NORAD_CAT_ID":41860,"ELEMENT_SET_NO":999,"REV_AT_EPOCH":3581,"BSTAR":0,"MEAN_MOTION_DOT":-3.0e-7,"MEAN_MOTION_DDOT":0},{"OBJECT_NAME":"GSAT0213 (PRN E04)","OBJECT_ID":"2016-069C","EPOCH":"2022-08-18T13:13:13.410624","MEAN_MOTION":1.70471965,"ECCENTRICITY":0.0003623,"INCLINATION":54.8301,"RA_OF_ASC_NODE":139.8648,"ARG_OF_PERICENTER":279.3258,"MEAN_ANOMALY":80.6603,"EPHEMERIS_TYPE":0,"CLASSIFICATION_TYPE":"U","NORAD_CAT_ID":41861,"ELEMENT_SET_NO":999,"REV_AT_EPOCH":3567,"BSTAR":0,"MEAN_MOTION_DOT":-2.9e-7,"MEAN_MOTION_DDOT":0}]