GSAT0101 (GALILEO-PFM)  
1 37846U 11060A   22229.84324472 -.00000092  00000+0  00000+0 0  9997
2 37846  57.0198  19.6692 0002621  67.7753 292.2538  1.70475088 67395
GSAT0102 (GALILEO-FM2)  
1 37847U 11060B   22227.42739712 -.00000093  00000+0  00000+0 0  9998
2 37847  57.0194  19.7343 0001682  15.0567 349.0531  1.70475349 67238
GSAT0103 (GALILEO-FM3)  
1 38857U 12055A   22230.46924318 -.00000028  00000+0  00000+0 0  9999
2 38857  55.1530 139.9943 0003336 269.1489  90.8400  1.70473794 61161
GSAT0104 (GALILEO-FM4)  
1 38858U 12055B   22231.02584185 -.00000030  00000+0  00000+0 0  9990
2 38858  55.1534 139.9806 0000907 267.5980  92.4178  1.70474114 61171
GSAT0201 (GALILEO 5)    
1 40128U 14050A   22230.19429089 -.00000126  00000+0  00000+0 0  9994
2 40128  50.2415 329.8234 1623503 126.2997 249.8209  1.85519100 52361
GSAT0202 (GALILEO 6)    
1 40129U 14050B   22231.53307162 -.00000123  00000+0  00000+0 0  9998
2 40129  50.2645 328.8324 1620471 127.1609 248.7762  1.85519717 54556
GSAT0203 (GALILEO 7)    
1 40544U 15017A   22230.21014221 -.00000092  00000+0  00000+0 0  9993
2 40544  56.8151  19.6840 0002015 208.5575 151.4335  1.70475772 45352
GSAT0204 (GALILEO 8)    
1 40545U 15017B   22229.87638358 -.00000092  00000+0  00000+0 0  9997
2 40545  56.8204  19.7058 0002754 189.7325 170.2637  1.70475738  8396
GSAT0205 (GALILEO 9)    
1 40889U 15045A   22231.40337818  .00000036  00000+0  00000+0 0  9995
2 40889  55.5843 260.2236 0003451 347.5276  12.5206  1.70473648 43181
GSAT0206 (GALILEO 10)   
1 40890U 15045B   22230.45097232  .00000030  00000+0  00000+0 0  9998
2 40890  55.5837 260.2459 0002649 315.4949  44.5380  1.70473618 43198
GSAT0209 (GALILEO 12)   
1 41174U 15079A   22230.03857249 -.00000026  00000+0  00000+0 0  9993
2 41174  55.1695 139.7103 0003844 319.8878  40.1122  1.70474004 41504
GSAT0208 (GALILEO 11)   
1 41175U 15079B   22229.08487965 -.00000021  00000+0  00000+0 0  9996
2 41175  55.1676 139.7350 0003146 320.8757  39.1308  1.70473953 41327
GSAT0211 (GALILEO 14)   
1 41549U 16030A   22229.79061655  .00000026  00000+0  00000+0 0  9995
2 41549  55.7326 260.2038 0004736 298.8427  61.1630  1.70475145 38815
GSAT0210 (GALILEO 13)   
1 41550U 16030B   22230.08323987  .00000028  00000+0  00000+0 0  9992
2 41550  55.7299 260.1971 0004470 273.3223  86.6802  1.70474604 38810
GSAT0207 (GALILEO 15)   
1 41859U 16069A   22230.91865130 -.00000030  00000+0  00000+0 0  9993
2 41859  54.8304 139.8518 0003782 304.2569  55.7337  1.70472783 35565
GSAT0212 (GALILEO 16)   
1 41860U 16069B   22230.77206927 -.00000030  00000+0  00000+0 0  9992
2 41860  54.8277 139.8533 0002771 338.9762  21.0391  1.70472658 35814
GSAT0213 (GALILEO 17)   
1 41861U 16069C   22230.55084966 -.00000029  00000+0  00000+0 0  9994
2 41861  54.8301 139.8648 0003623 279.3258  80.6603  1.70471965 35676
